[{"OBJECT_NAME":"SNAP-3 JIMI","OBJECT_ID":"2015-058M","EPOCH":"2026-03-09T15:09:34.376832","MEAN_MOTION":15.01135599,"ECCENTRICITY":0.0105534,"INCLINATION":64.7662,"RA_OF_ASC_NODE":174.484,"ARG_OF_PERICENTER":96.511,"MEAN_ANOMALY":264.8035,"EPHEMERIS_TYPE":0,"CLASSIFICATION_TYPE":"U","NORAD_CAT_ID":40975,"ELEMENT_SET_NO":999,"REV_AT_EPOCH":9927,"BSTAR":0.00051665,"MEAN_MOTION_DOT":7.303e-5,"MEAN_MOTION_DDOT":0},{"OBJECT_NAME":"TRANSPORTER-15 OBJECT V","OBJECT_ID":"2025-276V","EPOCH":"2026-03-09T17:08:31.585344","MEAN_MOTION":15.2021049,"ECCENTRICITY":0.00044492,"INCLINATION":97.4286,"RA_OF_ASC_NODE":144.0632,"ARG_OF_PERICENTER":13.5049,"MEAN_ANOMALY":346.6304,"EPHEMERIS_TYPE":0,"CLASSIFICATION_TYPE":"U","NORAD_CAT_ID":66685,"ELEMENT_SET_NO":999,"REV_AT_EPOCH":1532,"BSTAR":0.00072831858,"MEAN_MOTION_DOT":0.0001574,"MEAN_MOTION_DDOT":0}]
