SNAP-3 JIMI             
1 40975U 15058M   26068.63164788  .00007303  00000+0  51665-3 0  9997
2 40975  64.7662 174.4840 0105534  96.5110 264.8035 15.01135599 99270
TRANSPORTER-15 OBJECT V 
1 66685U 25276V   26068.71425446  .00015740  00000+0  72832-3 0  9999
2 66685  97.4286 144.0632 0004449  13.5049 346.6304 15.20210490 15323
